{
  "norad_id": 65356,
  "name": "STARLINK-34680",
  "history": [
    {
      "epoch": "2026-03-28T06:12:05.939712Z",
      "apogee_km": 476.11697353965064,
      "perigee_km": 474.2610928498616,
      "latitude_deg": 1.0152463311623777e-05,
      "longitude_deg": 163.5411303759519,
      "height_km": 476.2699236935915,
      "semi_major_axis_km": 6853.326033194756,
      "eccentricity": 0.0001354,
      "inclination_deg": 53.1593,
      "raan_deg": 82.2473,
      "arg_perigee_deg": 101.3721,
      "mean_anomaly_deg": 258.7432,
      "mean_motion_rev_day": 15.3020872
    },
    {
      "epoch": "2026-03-29T05:42:53.795232Z",
      "apogee_km": 476.07275377318183,
      "perigee_km": 474.34571052267984,
      "latitude_deg": -6.687571037360994e-05,
      "longitude_deg": 165.32561817953166,
      "height_km": 476.0555286391318,
      "semi_major_axis_km": 6853.34623214793,
      "eccentricity": 0.000126,
      "inclination_deg": 53.1598,
      "raan_deg": 77.6969,
      "arg_perigee_deg": 86.5619,
      "mean_anomaly_deg": 273.5525,
      "mean_motion_rev_day": 15.30201955
    },
    {
      "epoch": "2026-03-29T22:57:29.147904Z",
      "apogee_km": 476.5583535810938,
      "perigee_km": 473.78687517304024,
      "latitude_deg": 5.818770599204877e-05,
      "longitude_deg": -97.36784222879217,
      "height_km": 476.12117092928776,
      "semi_major_axis_km": 6853.309614377067,
      "eccentricity": 0.0002022,
      "inclination_deg": 53.1595,
      "raan_deg": 74.3588,
      "arg_perigee_deg": 92.1343,
      "mean_anomaly_deg": 267.989,
      "mean_motion_rev_day": 15.30214219
    },
    {
      "epoch": "2026-03-30T05:13:41.733696Z",
      "apogee_km": 475.9370174016103,
      "perigee_km": 474.46629092642706,
      "latitude_deg": 3.9193946436705724e-07,
      "longitude_deg": 167.10716775116762,
      "height_km": 476.2222599898498,
      "semi_major_axis_km": 6853.338654164018,
      "eccentricity": 0.0001073,
      "inclination_deg": 53.1597,
      "raan_deg": 73.1438,
      "arg_perigee_deg": 99.5716,
      "mean_anomaly_deg": 260.5406,
      "mean_motion_rev_day": 15.30204493
    },
    {
      "epoch": "2026-03-30T05:13:41.734560Z",
      "apogee_km": 475.93681180145086,
      "perigee_km": 474.4664965265865,
      "latitude_deg": 3.122282321593497e-06,
      "longitude_deg": 167.1071661755527,
      "height_km": 476.2222258031875,
      "semi_major_axis_km": 6853.338654164018,
      "eccentricity": 0.00010727,
      "inclination_deg": 53.1597,
      "raan_deg": 73.1438,
      "arg_perigee_deg": 99.5716,
      "mean_anomaly_deg": 260.5406,
      "mean_motion_rev_day": 15.30204493
    },
    {
      "epoch": "2026-03-30T22:28:17.047488Z",
      "apogee_km": 476.4474749147912,
      "perigee_km": 473.8833803445186,
      "latitude_deg": -1.1820372541305857e-05,
      "longitude_deg": -95.58383202574707,
      "height_km": 476.23694765904054,
      "semi_major_axis_km": 6853.302427629655,
      "eccentricity": 0.00018707,
      "inclination_deg": 53.1597,
      "raan_deg": 69.8081,
      "arg_perigee_deg": 97.8136,
      "mean_anomaly_deg": 262.3077,
      "mean_motion_rev_day": 15.30216626
    },
    {
      "epoch": "2026-03-31T15:42:52.334496Z",
      "apogee_km": 476.1394506969591,
      "perigee_km": 474.2671181312562,
      "latitude_deg": 5.30607951506066e-06,
      "longitude_deg": 1.7225021241195586,
      "height_km": 476.16321554434677,
      "semi_major_axis_km": 6853.340284414107,
      "eccentricity": 0.0001366,
      "inclination_deg": 53.1605,
      "raan_deg": 66.4696,
      "arg_perigee_deg": 93.7931,
      "mean_anomaly_deg": 266.3226,
      "mean_motion_rev_day": 15.30203947
    },
    {
      "epoch": "2026-04-01T15:13:40.285920Z",
      "apogee_km": 476.1002479797162,
      "perigee_km": 474.2169623474165,
      "latitude_deg": 8.865900879915455e-06,
      "longitude_deg": 3.5075507104880472,
      "height_km": 475.99995972095184,
      "semi_major_axis_km": 6853.295605163566,
      "eccentricity": 0.0001374,
      "inclination_deg": 53.161,
      "raan_deg": 61.9201,
      "arg_perigee_deg": 86.5482,
      "mean_anomaly_deg": 273.5676,
      "mean_motion_rev_day": 15.30218911
    },
    {
      "epoch": "2026-04-02T14:44:27.941856Z",
      "apogee_km": 476.2265999895426,
      "perigee_km": 474.1460680917944,
      "latitude_deg": 5.046341221359055e-05,
      "longitude_deg": 5.290961818732214,
      "height_km": 476.14748747584855,
      "semi_major_axis_km": 6853.323334040668,
      "eccentricity": 0.00015179,
      "inclination_deg": 53.1612,
      "raan_deg": 57.3677,
      "arg_perigee_deg": 93.4883,
      "mean_anomaly_deg": 266.6292,
      "mean_motion_rev_day": 15.30209624
    },
    {
      "epoch": "2026-04-03T14:15:16.293312Z",
      "apogee_km": 476.69972202442204,
      "perigee_km": 473.6609611151698,
      "latitude_deg": -2.7945456352310993e-05,
      "longitude_deg": 7.074876931991283,
      "height_km": 475.86940851357303,
      "semi_major_axis_km": 6853.317341569796,
      "eccentricity": 0.0002217,
      "inclination_deg": 53.1613,
      "raan_deg": 52.8188,
      "arg_perigee_deg": 82.138,
      "mean_anomaly_deg": 277.9872,
      "mean_motion_rev_day": 15.30211631
    },
    {
      "epoch": "2026-04-04T13:46:04.391616Z",
      "apogee_km": 476.355017243196,
      "perigee_km": 473.9536239644567,
      "latitude_deg": -8.501185602573572e-06,
      "longitude_deg": 8.858421833863883,
      "height_km": 475.9785580649533,
      "semi_major_axis_km": 6853.2913206038265,
      "eccentricity": 0.0001752,
      "inclination_deg": 53.1604,
      "raan_deg": 48.2684,
      "arg_perigee_deg": 86.5039,
      "mean_anomaly_deg": 273.6162,
      "mean_motion_rev_day": 15.30220346
    },
    {
      "epoch": "2026-04-05T13:16:52.481280Z",
      "apogee_km": 476.07064383944817,
      "perigee_km": 474.4189788229178,
      "latitude_deg": -1.743218382031145e-06,
      "longitude_deg": 10.641992562632172,
      "height_km": 476.3089133095143,
      "semi_major_axis_km": 6853.381811331183,
      "eccentricity": 0.0001205,
      "inclination_deg": 53.1597,
      "raan_deg": 43.718,
      "arg_perigee_deg": 101.592,
      "mean_anomaly_deg": 258.5216,
      "mean_motion_rev_day": 15.30190039
    },
    {
      "epoch": "2026-04-06T03:23:21.048576Z",
      "apogee_km": 475.92349206164545,
      "perigee_km": 474.4238506205429,
      "latitude_deg": 1.2605749085719368e-05,
      "longitude_deg": 155.71367938556298,
      "height_km": 476.3070252535101,
      "semi_major_axis_km": 6853.310671341093,
      "eccentricity": 0.00010941,
      "inclination_deg": 53.1598,
      "raan_deg": 40.9881,
      "arg_perigee_deg": 108.2638,
      "mean_anomaly_deg": 251.8482,
      "mean_motion_rev_day": 15.30213865
    },
    {
      "epoch": "2026-04-07T06:02:14.993088Z",
      "apogee_km": 475.9023990541,
      "perigee_km": 474.4563492991483,
      "latitude_deg": 6.80493431268025e-05,
      "longitude_deg": 109.73814149514193,
      "height_km": 476.14260255752953,
      "semi_major_axis_km": 6853.316374176624,
      "eccentricity": 0.0001055,
      "inclination_deg": 53.1604,
      "raan_deg": 35.8317,
      "arg_perigee_deg": 95.1435,
      "mean_anomaly_deg": 264.9687,
      "mean_motion_rev_day": 15.30211955
    },
    {
      "epoch": "2026-04-07T20:08:43.863648Z",
      "apogee_km": 475.9893674354771,
      "perigee_km": 474.37472546813297,
      "latitude_deg": -2.188432389693067e-05,
      "longitude_deg": -105.19281700922102,
      "height_km": 476.0163807133834,
      "semi_major_axis_km": 6853.319046451805,
      "eccentricity": 0.0001178,
      "inclination_deg": 53.1598,
      "raan_deg": 33.1005,
      "arg_perigee_deg": 85.4632,
      "mean_anomaly_deg": 274.6503,
      "mean_motion_rev_day": 15.3021106
    },
    {
      "epoch": "2026-04-08T02:24:56.760480Z",
      "apogee_km": 476.03820159285715,
      "perigee_km": 474.43314171315615,
      "latitude_deg": -3.581084704460281e-05,
      "longitude_deg": 159.28332505247545,
      "height_km": 476.06853073251955,
      "semi_major_axis_km": 6853.372671653006,
      "eccentricity": 0.0001171,
      "inclination_deg": 53.1603,
      "raan_deg": 31.8879,
      "arg_perigee_deg": 85.3262,
      "mean_anomaly_deg": 274.7872,
      "mean_motion_rev_day": 15.301931
    },
    {
      "epoch": "2026-04-09T01:55:44.758560Z",
      "apogee_km": 476.1168334985405,
      "perigee_km": 474.42554942505285,
      "latitude_deg": -4.9648756955743935e-06,
      "longitude_deg": 161.06729475797187,
      "height_km": 476.1942018319865,
      "semi_major_axis_km": 6853.408191461796,
      "eccentricity": 0.00012339,
      "inclination_deg": 53.1607,
      "raan_deg": 27.3375,
      "arg_perigee_deg": 91.6817,
      "mean_anomaly_deg": 268.4325,
      "mean_motion_rev_day": 15.30181204
    },
    {
      "epoch": "2026-04-10T04:34:38.916480Z",
      "apogee_km": 475.99776715422286,
      "perigee_km": 474.3358409817356,
      "latitude_deg": 3.954479109333626e-06,
      "longitude_deg": 115.09193030967006,
      "height_km": 475.87505879175325,
      "semi_major_axis_km": 6853.3038040679785,
      "eccentricity": 0.00012125,
      "inclination_deg": 53.1611,
      "raan_deg": 22.1822,
      "arg_perigee_deg": 76.7774,
      "mean_anomaly_deg": 283.3362,
      "mean_motion_rev_day": 15.30216165
    },
    {
      "epoch": "2026-04-11T11:55:43.310784Z",
      "apogee_km": 476.1606098687944,
      "perigee_km": 474.34720263500003,
      "latitude_deg": -9.971700822006581e-06,
      "longitude_deg": -2.5337412503207,
      "height_km": 476.20084396296676,
      "semi_major_axis_km": 6853.390906251897,
      "eccentricity": 0.0001323,
      "inclination_deg": 53.1609,
      "raan_deg": 16.1124,
      "arg_perigee_deg": 93.0878,
      "mean_anomaly_deg": 267.0274,
      "mean_motion_rev_day": 15.30186993
    }
  ]
}